EUTELSAT 7A             
1 28187U 04008A   25273.54383936  .00000107  00000+0  00000+0 0  9994
2 28187   5.1654  75.0932 0000828 104.2952 246.7365  1.00272283 78740
EUTELSAT 174A           
1 28924U 05052A   25273.60905628  .00000013  00000+0  00000+0 0  9994
2 28924   3.5558  79.7360 0006130 108.7182 214.4399  1.00270907 49722
EUTELSAT HOTBIRD 13B    
1 29270U 06032A   25273.22120458  .00000159  00000+0  00000+0 0  9997
2 29270   0.9835  85.0753 0004051  96.9339 299.9833  1.00275548 44704
EUTELSAT HOTBIRD 13C    
1 33459U 08065A   25273.35481853 -.00000097  00000+0  00000+0 0  9994
2 33459   2.2761  82.2603 0005042 128.2846 274.0635  1.00271963 44742
EUTELSAT 36B            
1 36101U 09065A   25273.58145288  .00000114  00000+0  00000+0 0  9995
2 36101   0.0583  10.9257 0005848 180.3272  78.1463  1.00271377 58102
EUTELSAT KA-SAT 9A      
1 37258U 10069A   25272.71689874  .00000065  00000+0  00000+0 0  9998
2 37258   0.0548 331.5356 0002819 189.4428 114.8465  1.00274015 41392
EUTELSAT 7 WEST A       
1 37816U 11051A   25273.40503237 -.00000058  00000+0  00000+0 0  9998
2 37816   0.0624   3.7343 0006388 185.7379 318.4541  1.00271952 51283
EUTELSAT 16A            
1 37836U 11057A   25273.57460618  .00000106  00000+0  00000+0 0  9992
2 37836   0.0645   3.6989 0005388 186.9112  41.8048  1.00271757  4729
